$$SOE
2460147.500000000, A.D. 2023-Jul-22 00:00:00.0000, -8.878045384399407E+07, -2.829548521426553E+08, -1.980587269125675E+07,
2460154.500000000, A.D. 2023-Jul-29 00:00:00.0000, -7.547037445887822E+07, -2.849310433879782E+08, -1.989275291696641E+07,
2460161.500000000, A.D. 2023-Aug-05 00:00:00.0000, -6.201834342934997E+07, -2.863708589391351E+08, -1.994218368955576E+07,
2460168.500000000, A.D. 2023-Aug-12 00:00:00.0000, -4.844759976238587E+07, -2.872619598757094E+08, -1.995340127166983E+07,
2460175.500000000, A.D. 2023-Aug-19 00:00:00.0000, -3.478253131289959E+07, -2.875930587979361E+08, -1.992571855272172E+07,
2460182.500000000, A.D. 2023-Aug-26 00:00:00.0000, -2.104863200709638E+07, -2.873540373509223E+08, -1.985853298215185E+07,
2460189.500000000, A.D. 2023-Sep-02 00:00:00.0000, -7.272446079901399E+06, -2.865360642946011E+08, -1.975133449224004E+07,
2460196.500000000, A.D. 2023-Sep-09 00:00:00.0000, 6.518501349133907E+06, -2.851317126236877E+08, -1.960371330918729E+07,
2460203.500000000, A.D. 2023-Sep-16 00:00:00.0000, 2.029578797502240E+07, -2.831350740933100E+08, -1.941536755360511E+07,
2460210.500000000, A.D. 2023-Sep-23 00:00:00.0000, 3.403019291284025E+07, -2.805418690133454E+08, -1.918611051651865E+07,
2460217.500000000, A.D. 2023-Sep-30 00:00:00.0000, 4.769180982005625E+07, -2.773495481537374E+08, -1.891587734674349E+07,
2460224.500000000, A.D. 2023-Oct-07 00:00:00.0000, 6.125017183500683E+07, -2.735573852587091E+08, -1.860473083832626E+07,
2460231.500000000, A.D. 2023-Oct-14 00:00:00.0000, 7.467438870330688E+07, -2.691665614096864E+08, -1.825286654405575E+07,
2460238.500000000, A.D. 2023-Oct-21 00:00:00.0000, 8.793329831428926E+07, -2.641802375960702E+08, -1.786061724386413E+07,
2460245.500000000, A.D. 2023-Oct-28 00:00:00.0000, 1.009956298679029E+08, -2.586036112913857E+08, -1.742845632388778E+07,
2460252.500000000, A.D. 2023-Nov-04 00:00:00.0000, 1.138301757239905E+08, -2.524439560178685E+08, -1.695699989733596E+07,
2460259.500000000, A.D. 2023-Nov-11 00:00:00.0000, 1.264059700917613E+08, -2.457106429339047E+08, -1.644700763180937E+07,
2460266.500000000, A.D. 2023-Nov-18 00:00:00.0000, 1.386924724709095E+08, -2.384151432312471E+08, -1.589938222862531E+07,
2460273.500000000, A.D. 2023-Nov-25 00:00:00.0000, 1.506597533666387E+08, -2.305710103885026E+08, -1.531516750380354E+07,
2460280.500000000, A.D. 2023-Dec-02 00:00:00.0000, 1.622786795728643E+08, -2.221938417536658E+08, -1.469554504703593E+07,
2460287.500000000, A.D. 2023-Dec-09 00:00:00.0000, 1.735210962603610E+08, -2.133012194038181E+08, -1.404182947411765E+07,
2460294.500000000, A.D. 2023-Dec-16 00:00:00.0000, 1.843600032958277E+08, -2.039126306172443E+08, -1.335546233343817E+07,
2460301.500000000, A.D. 2023-Dec-23 00:00:00.0000, 1.947697233375353E+08, -1.940493680908687E+08, -1.263800470869771E+07,
2460308.500000000, A.D. 2023-Dec-30 00:00:00.0000, 2.047260576996096E+08, -1.837344101261218E+08, -1.189112840573063E+07,
2460315.500000000, A.D. 2024-Jan-06 00:00:00.0000, 2.142064257623808E+08, -1.729922848271183E+08, -1.111660587873539E+07,
2460322.500000000, A.D. 2024-Jan-13 00:00:00.0000, 2.231899889513507E+08, -1.618489221668347E+08, -1.031629948448928E+07,
2460329.500000000, A.D. 2024-Jan-20 00:00:00.0000, 2.316577587274024E+08, -1.503314932013568E+08, -9.492150094767213E+06,
2460336.500000000, A.D. 2024-Jan-27 00:00:00.0000, 2.395926851921136E+08, -1.384682383892491E+08, -8.646165012427837E+06,
2460343.500000000, A.D. 2024-Feb-03 00:00:00.0000, 2.469797249547480E+08, -1.262882887318934E+08, -7.780405423416667E+06,
2460350.500000000, A.D. 2024-Feb-10 00:00:00.0000, 2.538058880716793E+08, -1.138214828649923E+08, -6.896973631264016E+06,
2460357.500000000, A.D. 2024-Feb-17 00:00:00.0000, 2.600602641871835E+08, -1.010981829204584E+08, -5.998000280972734E+06,
2460364.500000000, A.D. 2024-Feb-24 00:00:00.0000, 2.657340283394738E+08, -8.814909187952474E+07, -5.085631761169907E+06,
2460371.500000000, A.D. 2024-Mar-02 00:00:00.0000, 2.708204272916611E+08, -7.500507502242368E+07, -4.162017963810369E+06,
2460378.500000000, A.D. 2024-Mar-09 00:00:00.0000, 2.753147477072396E+08, -6.169698788563325E+07, -3.229300576779064E+06,
2460385.500000000, A.D. 2024-Mar-16 00:00:00.0000, 2.792142680367039E+08, -4.825551259611992E+07, -2.289602067441463E+06,
2460392.500000000, A.D. 2024-Mar-23 00:00:00.0000, 2.825181957282647E+08, -3.471100322033846E+07, -1.345015371223951E+06,
2460399.500000000, A.D. 2024-Mar-30 00:00:00.0000, 2.852275894272593E+08, -2.109334158036376E+07, -3.975941710044090E+05,
2460406.500000000, A.D. 2024-Apr-06 00:00:00.0000, 2.873452684196457E+08, -7.431808001676673E+06, 5.506558672310389E+05,
2460413.500000000, A.D. 2024-Apr-13 00:00:00.0000, 2.888757148965449E+08, 6.245033089575398E+06, 1.497784600845154E+06,
2460420.500000000, A.D. 2024-Apr-20 00:00:00.0000, 2.898249701006413E+08, 1.990943496364620E+07, 2.441903943245739E+06,
2460427.500000000, A.D. 2024-Apr-27 00:00:00.0000, 2.902005247820805E+08, 3.353455707828040E+07, 3.381193513073497E+06,
2460434.500000000, A.D. 2024-May-04 00:00:00.0000, 2.900112058840417E+08, 4.709453969679900E+07, 4.313905347771153E+06,
2460441.500000000, A.D. 2024-May-11 00:00:00.0000, 2.892670613998026E+08, 6.056456491413720E+07, 5.238367680988953E+06,
2460448.500000000, A.D. 2024-May-18 00:00:00.0000, 2.879792450480129E+08, 7.392090469368708E+07, 6.152987823389743E+06,
2460455.500000000, A.D. 2024-May-25 00:00:00.0000, 2.861599021942962E+08, 8.714095663483606E+07, 7.056254201652259E+06,
2460462.500000000, A.D. 2024-Jun-01 00:00:00.0000, 2.838220582957010E+08, 1.002032682477329E+08, 7.946737610512227E+06,
2460469.500000000, A.D. 2024-Jun-08 00:00:00.0000, 2.809795111350816E+08, 1.130875506255504E+08, 8.823091721872374E+06,
2460476.500000000, A.D. 2024-Jun-15 00:00:00.0000, 2.776467280715629E+08, 1.257746830228567E+08, 9.684052928133242E+06,
2460483.500000000, A.D. 2024-Jun-22 00:00:00.0000, 2.738387479410992E+08, 1.382467105100000E+08, 1.052843977775219E+07,
2460490.500000000, A.D. 2024-Jun-29 00:00:00.0000, 2.695710859771169E+08, 1.504868338941709E+08, 1.135515212106409E+07,
2460497.500000000, A.D. 2024-Jul-06 00:00:00.0000, 2.648596447578413E+08, 1.624793904178486E+08, 1.216316959142201E+07,
2460504.500000000, A.D. 2024-Jul-13 00:00:00.0000, 2.597206333426996E+08, 1.742098289938846E+08, 1.295154953794906E+07,
2460511.500000000, A.D. 2024-Jul-20 00:00:00.0000, 2.541704927058000E+08, 1.856646820187810E+08, 1.371942474745284E+07,
2460518.500000000, A.D. 2024-Jul-27 00:00:00.0000, 2.482258268113464E+08, 1.968315336412892E+08, 1.446600099504729E+07,
2460525.500000000, A.D. 2024-Aug-03 00:00:00.0000, 2.419033395227506E+08, 2.076989848820293E+08, 1.519055442062539E+07,
2460532.500000000, A.D. 2024-Aug-10 00:00:00.0000, 2.352197773608324E+08, 2.182566163014559E+08, 1.589242876327893E+07,
2460539.500000000, A.D. 2024-Aug-17 00:00:00.0000, 2.281918779526444E+08, 2.284949488700255E+08, 1.657103249366000E+07,
2460546.500000000, A.D. 2024-Aug-24 00:00:00.0000, 2.208363239501993E+08, 2.384054035815577E+08, 1.722583587750310E+07,
2460553.500000000, A.D. 2024-Aug-31 00:00:00.0000, 2.131697022548017E+08, 2.479802602451578E+08, 1.785636798758012E+07,
2460560.500000000, A.D. 2024-Sep-07 00:00:00.0000, 2.052084686123929E+08, 2.572126160162169E+08, 1.846221366940720E+07,
2460567.500000000, A.D. 2024-Sep-14 00:00:00.0000, 1.969689173542939E+08, 2.660963450337606E+08, 1.904301055804993E+07,
2460574.500000000, A.D. 2024-Sep-21 00:00:00.0000, 1.884671539305063E+08, 2.746260598841761E+08, 1.959844638477267E+07,
2460581.500000000, A.D. 2024-Sep-28 00:00:00.0000, 1.797190694179909E+08, 2.827970719303936E+08, 2.012825637198545E+07,
2460588.500000000, A.D. 2024-Oct-05 00:00:00.0000, 1.707403203643987E+08, 2.906053507375737E+08, 2.063222039512131E+07,
2460595.500000000, A.D. 2024-Oct-12 00:00:00.0000, 1.615463133044794E+08, 2.980474857490209E+08, 2.111016019813372E+07,
2460602.500000000, A.D. 2024-Oct-19 00:00:00.0000, 1.521521918991987E+08, 3.051206500771602E+08, 2.156193680904743E+07,
2460609.500000000, A.D. 2024-Oct-26 00:00:00.0000, 1.425728263815013E+08, 3.118225657154612E+08, 2.198744809949644E+07,
2460616.500000000, A.D. 2024-Nov-02 00:00:00.0000, 1.328228052994175E+08, 3.181514701021256E+08, 2.238662645708348E+07,
2460623.500000000, A.D. 2024-Nov-09 00:00:00.0000, 1.229164294031108E+08, 3.241060841101044E+08, 2.275943656623249E+07,
2460630.500000000, A.D. 2024-Nov-16 00:00:00.0000, 1.128677074686289E+08, 3.296855814955880E+08, 2.310587329653794E+07,
2460637.500000000, A.D. 2024-Nov-23 00:00:00.0000, 1.026903538889356E+08, 3.348895597678168E+08, 2.342595969026333E+07,
2460644.500000000, A.D. 2024-Nov-30 00:00:00.0000, 9.239778804019547E+07, 3.397180124340714E+08, 2.371974502526684E+07,
2460651.500000000, A.D. 2024-Dec-07 00:00:00.0000, 8.200313565773316E+07, 3.441713030246711E+08, 2.398730294719131E+07,
2460658.500000000, A.D. 2024-Dec-14 00:00:00.0000, 7.151923136458264E+07, 3.482501420961710E+08, 2.422872983102891E+07,
2460665.500000000, A.D. 2024-Dec-21 00:00:00.0000, 6.095861987848066E+07, 3.519555659308931E+08, 2.444414347909430E+07,
2460672.500000000, A.D. 2024-Dec-28 00:00:00.0000, 5.033355771869045E+07, 3.552889139217960E+08, 2.463368172898024E+07,
2460679.500000000, A.D. 2025-Jan-04 00:00:00.0000, 3.965601787879413E+07, 3.582518069873089E+08, 2.479750092571402E+07,
2460686.500000000, A.D. 2025-Jan-11 00:00:00.0000, 2.893769553468306E+07, 3.608461286349495E+08, 2.493577455783126E+07,
2460693.500000000, A.D. 2025-Jan-18 00:00:00.0000, 1.819001377144553E+07, 3.630740077040474E+08, 2.504869206295009E+07,
2460700.500000000, A.D. 2025-Jan-25 00:00:00.0000, 7.424129483968089E+06, 3.649378022582273E+08, 2.513645773787305E+07,
2460707.500000000, A.D. 2025-Feb-01 00:00:00.0000, -3.349060439632380E+06, 3.664400845380856E+08, 2.519928972890492E+07,
2460714.500000000, A.D. 2025-Feb-08 00:00:00.0000, -1.411891266935812E+07, 3.675836269331026E+08, 2.523741909429066E+07,
$$EOE